#aV2013  7 23  0  0  0.00000000     288 DD+AD WGS84 FIT  NGA
## 1750 172800.00000000   300.00000000 56496 0.0000000000000
+   31     1  2  3  4  5  6  7  8  9 10 11 12 13 14 15 16 17
+         18 19 20 21 22 23 24 25 26 27 28 29 31 32  0  0  0
+          0  0  0  0  0  0  0  0  0  0  0  0  0  0  0  0  0
+          0  0  0  0  0  0  0  0  0  0  0  0  0  0  0  0  0
+          0  0  0  0  0  0  0  0  0  0  0  0  0  0  0  0  0
++         2  2  2  2  2  2  2  2  2  2  2  2  2  2  2  2  2
++         2  2  2  2  2  2  2  2  2  2  2  2  2  2  2  0  0
++         0  0  0  0  0  0  0  0  0  0  0  0  0  0  0  0  0
++         0  0  0  0  0  0  0  0  0  0  0  0  0  0  0  0  0
++         0  0  0  0  0  0  0  0  0  0  0  0  0  0  0  0  0
%c cc cc ccc ccc cccc cccc cccc cccc ccccc ccccc ccccc ccccc
%c cc cc ccc ccc cccc cccc cccc cccc ccccc ccccc ccccc ccccc
%f  0.0000000  0.000000000  0.00000000000  0.000000000000000
%f  0.0000000  0.000000000  0.00000000000  0.000000000000000
%i    0    0    0    0      0      0      0      0         0
%i    0    0    0    0      0      0      0      0         0
/*      NGA, ST. LOUIS,MO.                                  
/*   EPHEMERIS COMPUTED FROM  1 DAYS OF DATA
/*   EPOCHA SMOOTHER  
/* CCCCCCCCCCCCCCCCCCCCCCCCCCCCCCCCCCCCCCCCCCCCCCCCCCCCCCCCC
*  2013  7 23  6 30  0.00000000                                                 
P  1 -13768.423041  22593.727467   1587.196953     53.668174                    
V  1  -1557.761481  -3198.641853  31726.080196      0.050054                    
P  2  17684.817302  -3653.118086 -19089.408405    443.044611                    
V  2  -9926.913907  22963.474155 -13940.963938      0.017974                    
P  3 -18250.126721   -334.568902  18837.082382    236.240788                    
V  3 -14631.519296 -20412.833678 -13941.967860      0.050182                    
P  4  13435.327650   8426.309455 -21583.085502    279.813715                    
V  4 -13060.040591  23445.466403   1311.065524      0.103814                    
P  5  26509.565585  -1894.624663   1806.651053   -398.898426                    
V  5   2387.414754   3041.133358 -31261.708236     -0.004101                    
P  6 -19703.601647  -7241.560026  16558.342389    129.444863                    
V  6 -10287.693049 -18184.228134 -19904.516624     -0.181870                    
P  7  -3222.856922  22909.139252  12804.906816    239.136489                    
V  7  -9985.802992  13030.204298 -26224.222157      0.041955                    
P  8   4489.385548  16367.898002  20361.073598      7.554938                    
V  8 -15626.375638  20418.637537 -13627.139456      0.002186                    
P  9   7814.714826  14120.313976  20511.987914    256.377256                    
V  9 -13859.444121  23530.258321 -10735.650199      0.025503                    
P 10  20966.862247   9845.861980 -13657.632450    -87.918535                    
V 10 -16728.531947   2314.288374 -24133.795475     -0.013317                    
P 11 -12936.416432  20264.327959  10553.822070   -403.367977                    
V 11  -1624.092701 -14961.161361  25913.495531     -0.035716                    
P 12  18201.621416 -10499.604465 -16161.624287    146.333277                    
V 12  20450.030943   1793.362320  22123.760804      0.021173                    
P 13   2943.204327  23855.257807 -11279.145396     97.280351                    
V 13  -7795.563388 -11949.271606 -27770.128117     -0.037024                    
P 14 -15441.296703 -20677.112713  -6413.842256    219.006906                    
V 14  -1832.895967  -8459.610498  30545.953871     -0.004823                    
P 15  10037.426549 -12698.657924  20994.224239   -128.847466                    
V 15  15244.306803  22106.343870   6333.906979     -0.017011                    
P 16 -26689.834290    282.366945   1693.715813   -249.804544                    
V 16  -2104.858463  -1822.749765 -31963.877123      0.005442                    
P 17  15442.852649  21175.415586  -4809.092376     -3.741329                    
V 17    940.337033   6719.258909  30944.993065     -0.037748                    
P 18  -6110.915962 -15670.838459  21028.448505    265.024007                    
V 18  25813.743336  -1156.833525   6423.037742      0.018772                    
P 19 -13281.550049   7211.578276  21728.099952   -390.919869                    
V 19 -12385.458888 -24936.267278   1121.993063     -0.029310                    
P 20 -12188.789417  14825.900992 -18503.319280    111.053330                    
V 20 -23367.533738   -184.639607  15460.125103      0.023260                    
P 21  -1300.416025 -21650.445762  15558.049062   -309.784835                    
V 21  11569.058230 -15357.195774 -21716.611199     -0.019810                    
P 22 -18094.717345 -11640.313954  15867.679742    176.852753                    
V 22  19790.551518  -2866.538614  20581.044754      0.016870                    
P 23  -4076.046396  18578.627635 -18285.699710     64.386684                    
V 23 -13521.064686 -19370.592171 -16993.130513     -0.035202                    
P 24  15497.005369 -20873.973522   5315.274521    -10.448564                    
V 24   -721.709353   7306.614674  30775.862644     -0.007035                    
P 25   3855.758400 -14880.223172 -21709.447454    125.928399                    
V 25  27398.989497   -281.310873   5167.743671      0.050710                    
P 26  16585.320755   3592.301023  19883.475287    108.989423                    
V 26  10744.797566  24283.520223 -12629.581373      0.169078                    
P 27 -17946.153123  -3636.326643  19235.268511    -14.339244                    
V 27 -11576.439218 -21561.863517 -14861.223285     -0.049013                    
P 28  14352.854117  13061.585717  18796.967078    278.021105                    
V 28 -22568.754050     40.453768  17593.583621      0.031126                    
P 29  -2443.594826 -23143.308459 -12795.949178    455.914055                    
V 29   9586.771359  13342.735632 -25827.714084      0.033687                    
P 31 -12815.311433  -7222.334352 -21946.577404    321.470095                    
V 31  14328.596821 -24307.537407    -93.137332      0.010637                    
P 32 -20764.495344   8462.720275 -13691.300406   -557.532032                    
V 32 -17602.327451  -4051.201042  24496.972878      0.010542                    
EOF
